     2.100          NAVIGATION                              RINEX VERSION / TYPE
fic2rin                                 12/10/2013 00:21:35 PGM / RUN BY / DATE
                                                            END OF HEADER
 4 13 12 10  0  0  0.0  .402936711907D-05  .341060513165D-12  .000000000000D+00
     .280000000000D+02 -.271875000000D+02  .497913597243D-08 -.918081769837D+00
    -.113435089588D-05  .106768489350D-01  .936165452003D-05  .515365609360D+04
     .172800000000D+06  .149011611938D-07  .130193243103D+01  .230967998505D-06
     .937728412929D+00  .186125000000D+03  .106378340589D+01 -.836284834620D-08
    -.310727228751D-10  .100000000000D+01  .177000000000D+04  .000000000000D+00
     .240000000000D+01  .000000000000D+00 -.651925802231D-08  .280000000000D+02
     .165606000000D+06  .400000000000D+01
 5 13 12 10  0  0  0.0 -.395772978663D-03  .909494701773D-12  .000000000000D+00
     .720000000000D+02  .609375000000D+02  .495627787744D-08 -.201500876246D+01
     .289082527161D-05  .348673423287D-02  .848062336445D-05  .515375655556D+04
     .172800000000D+06 -.558793544769D-08  .235248934733D+01 -.204890966415D-07
     .947790836001D+00  .209531250000D+03  .352244836891D+00 -.822105672573D-08
     .223937899341D-09  .100000000000D+01  .177000000000D+04  .000000000000D+00
     .240000000000D+01  .000000000000D+00 -.102445483208D-07  .720000000000D+02
     .165606000000D+06  .400000000000D+01
 6 13 12 10  0  0  0.0  .186244491488D-03  .164845914696D-10  .000000000000D+00
     .590000000000D+02 -.298750000000D+02  .510949854541D-08 -.222584793635D+01
    -.149384140968D-05  .828980794176D-02  .560097396374D-05  .515367855835D+04
     .172800000000D+06 -.134110450745D-06  .194301597441D+00 -.242143869400D-07
     .943299724311D+00  .264468750000D+03 -.198268921554D+00 -.846570977365D-08
     .157863718515D-09  .100000000000D+01  .177000000000D+04  .000000000000D+00
     .240000000000D+01  .000000000000D+00 -.512227416039D-08  .590000000000D+02
     .165606000000D+06  .400000000000D+01
 8 13 12 10  0  0  0.0  .104382634163D-04  .227373675443D-12  .000000000000D+00
     .200000000000D+02 -.112187500000D+02  .367301013847D-08  .103931610540D+00
    -.651925802231D-06  .134632101981D-01  .833906233311D-05  .515366695023D+04
     .172800000000D+06  .111758708954D-06 -.171534020655D+01  .111758708954D-06
     .997373685234D+00  .236343750000D+03 -.279998464870D+01 -.789747181854D-08
    -.230366738556D-09  .100000000000D+01  .177000000000D+04  .000000000000D+00
     .240000000000D+01  .000000000000D+00 -.465661287308D-08  .200000000000D+02
     .165606000000D+06  .400000000000D+01
 9 13 12 10  0  0  0.0  .289294868708D-03  .284217094304D-11  .000000000000D+00
     .480000000000D+02 -.205312500000D+02  .387158983869D-08  .184451527462D+01
    -.139512121677D-05  .168226391543D-01  .779703259468D-05  .515370856285D+04
     .172800000000D+06  .238418579102D-06 -.183275958824D+01 -.195577740669D-06
     .982958181182D+00  .233937500000D+03  .175021788957D+01 -.768246286256D-08
    -.302512600864D-09  .100000000000D+01  .177000000000D+04  .000000000000D+00
     .240000000000D+01  .000000000000D+00 -.605359673500D-08  .480000000000D+02
     .165606000000D+06  .400000000000D+01
10 13 12 10  0  0  0.0 -.105195678771D-03 -.159161572810D-11  .000000000000D+00
     .480000000000D+02  .594375000000D+02  .499663670140D-08 -.169194249229D+01
     .298209488392D-05  .132596926996D-01  .802241265774D-05  .515368309212D+04
     .172800000000D+06  .197440385818D-06  .237075500600D+01 -.819563865662D-07
     .942615055243D+00  .210093750000D+03  .840409439341D+00 -.816355433052D-08
     .272868508926D-09  .100000000000D+01  .177000000000D+04  .000000000000D+00
     .340000000000D+01  .000000000000D+00 -.279396772385D-08  .480000000000D+02
     .165606000000D+06  .400000000000D+01
11 13 12 10  0  0  0.0 -.445312820375D-03 -.329691829393D-11  .000000000000D+00
     .500000000000D+02 -.612500000000D+02  .634276420159D-08  .915359058390D+00
    -.324100255966D-05  .147776238155D-01  .810623168945D-05  .515369318390D+04
     .172800000000D+06 -.197440385818D-06  .100006392721D+01 -.819563865662D-07
     .889517400496D+00  .188812500000D+03  .124957173736D+01 -.918073955751D-08
    -.241438628317D-09  .100000000000D+01  .177000000000D+04  .000000000000D+00
     .240000000000D+01  .000000000000D+00 -.116415321827D-07  .500000000000D+02
     .165606000000D+06  .400000000000D+01
12 13 12 10  0  0  0.0  .173043925315D-03  .227373675443D-11  .000000000000D+00
     .960000000000D+02  .175937500000D+02  .399945230753D-08  .368524426270D+00
     .867992639542D-06  .461297237780D-02  .750273466110D-05  .515371505165D+04
     .172800000000D+06  .106170773506D-06 -.749791050413D+00  .119209289551D-06
     .986167128562D+00  .247156250000D+03  .328478825684D+00 -.795354558281D-08
     .228580949885D-09  .100000000000D+01  .177000000000D+04  .000000000000D+00
     .340000000000D+01  .000000000000D+00 -.121071934700D-07  .960000000000D+02
     .165606000000D+06  .400000000000D+01
13 13 12 10  0  0  0.0  .516013242304D-04 -.375166564481D-11  .000000000000D+00
     .330000000000D+02  .139062500000D+02  .445197115675D-08  .304656331503D+01
     .784173607826D-06  .506589002907D-02  .508874654770D-05  .515366429329D+04
     .172800000000D+06  .670552253723D-07 -.277676275817D+01  .111758708954D-06
     .979678166705D+00  .292906250000D+03  .219320772509D+01 -.807176479283D-08
    -.124290891500D-09  .100000000000D+01  .177000000000D+04  .000000000000D+00
     .240000000000D+01  .000000000000D+00 -.111758708954D-07  .330000000000D+02
     .165606000000D+06  .400000000000D+01
14 13 12 10  0  0  0.0  .208276323974D-03 -.113686837722D-11  .000000000000D+00
     .390000000000D+02  .155937500000D+02  .458376236067D-08 -.296169847319D+01
     .899657607079D-06  .733566342387D-02  .512786209583D-05  .515359078789D+04
     .172800000000D+06  .122934579849D-06 -.280740711175D+01 -.819563865662D-07
     .972296994518D+00  .284562500000D+03 -.198557676713D+01 -.812676708390D-08
    -.186079179516D-09  .100000000000D+01  .177000000000D+04  .000000000000D+00
     .240000000000D+01  .000000000000D+00 -.884756445885D-08  .390000000000D+02
     .165606000000D+06  .400000000000D+01
15 13 12 10  0  0  0.0 -.151407904923D-03 -.193267624127D-11  .000000000000D+00
     .670000000000D+02  .188750000000D+02  .536415200989D-08  .281936833666D+01
     .102818012238D-05  .596327031963D-02  .520609319210D-05  .515361164856D+04
     .172800000000D+06 -.130385160446D-06 -.291377132245D+01 -.596046447754D-07
     .938901446477D+00  .268375000000D+03  .199604096163D+00 -.848213902942D-08
    -.117504894551D-09  .100000000000D+01  .177000000000D+04  .000000000000D+00
     .240000000000D+01  .000000000000D+00 -.102445483208D-07  .670000000000D+02
     .165606000000D+06  .400000000000D+01
16 13 12 10  0  0  0.0 -.239350832999D-03  .125055521494D-11  .000000000000D+00
     .550000000000D+02  .119375000000D+02  .389159067180D-08 -.180811857501D+01
     .596046447754D-06  .719493674114D-02  .823102891445D-05  .515376249313D+04
     .172800000000D+06  .130385160446D-07 -.731313779183D+00 -.949949026108D-07
     .986819342792D+00  .235750000000D+03  .130234032039D+00 -.781246827781D-08
     .351086052715D-09  .100000000000D+01  .177000000000D+04  .000000000000D+00
     .240000000000D+01  .000000000000D+00 -.977888703346D-08  .550000000000D+02
     .165606000000D+06  .400000000000D+01
17 13 12 10  0  0  0.0 -.484641641378D-04 -.341060513165D-11  .000000000000D+00
     .530000000000D+02 -.462500000000D+02  .441661254107D-08 -.276122549731D+01
    -.234693288803D-05  .885717617348D-02  .597164034843D-05  .515371453667D+04
     .172800000000D+06  .800937414169D-07  .302562537024D+00 -.119209289551D-06
     .967334166357D+00  .266562500000D+03 -.217237117223D+01 -.798497546342D-08
     .942896418278D-10  .100000000000D+01  .177000000000D+04  .000000000000D+00
     .240000000000D+01  .000000000000D+00 -.107102096081D-07  .530000000000D+02
     .165606000000D+06  .400000000000D+01
18 13 12 10  0  0  0.0  .289567280561D-03  .216004991671D-11  .000000000000D+00
     .470000000000D+02  .691250000000D+02  .545344144344D-08 -.120346273925D+01
     .385381281376D-05  .145881100325D-01  .854581594467D-05  .515365600967D+04
     .172800000000D+06  .232830643654D-06  .235085076644D+01  .340864062309D-06
     .926364095171D+00  .195562500000D+03 -.207000590076D+01 -.855357057626D-08
     .220366321999D-09  .100000000000D+01  .177000000000D+04  .000000000000D+00
     .240000000000D+01  .000000000000D+00 -.111758708954D-07  .470000000000D+02
     .165606000000D+06  .400000000000D+01
19 13 12 10  0  0  0.0 -.424292869866D-03 -.261479726760D-11  .000000000000D+00
     .350000000000D+02 -.390000000000D+02  .460876340207D-08  .265563319387D+01
    -.203587114811D-05  .965283799451D-02  .575929880142D-05  .515376408195D+04
     .172800000000D+06 -.949949026108D-07  .353890861112D+00 -.596046447754D-07
     .964474105921D+00  .271906250000D+03  .398997176634D+00 -.812998150351D-08
     .310727228751D-10  .100000000000D+01  .177000000000D+04  .000000000000D+00
     .240000000000D+01  .000000000000D+00 -.149011611938D-07  .350000000000D+02
     .165606000000D+06  .400000000000D+01
20 13 12 10  0  0  0.0  .143360346556D-03  .306954461848D-11  .000000000000D+00
     .820000000000D+02  .506250000000D+02  .546665627961D-08 -.723938054903D+00
     .273063778877D-05  .588056806009D-02  .914745032787D-05  .515362279892D+04
     .172800000000D+06 -.447034835815D-07  .229760928929D+01  .465661287308D-07
     .927219504334D+00  .190187500000D+03  .129624231168D+01 -.853249826994D-08
     .198222542479D-09  .100000000000D+01  .177000000000D+04  .000000000000D+00
     .240000000000D+01  .000000000000D+00 -.791624188423D-08  .820000000000D+02
     .165606000000D+06  .400000000000D+01
